TEVEL2-5                
1 63214U 25052E   26068.96660006  .00021339  00000+0  71765-3 0  9991
2 63214  97.4013 325.3677 0004700  95.3936 264.7842 15.30817434 54919
STARLINK-35493          
1 65928U 25225U   26068.54194601  .00041033  00000+0  13906-2 0  9999
2 65928  53.1589 166.4946 0001195  80.2123 279.9013 15.30183801 24389
